[{"day":"17","month":"NOV","year":"2022","place_geo":"Sens, Bourgogne, France","place_name":"Le Kaktus","ticket_link":"","more_link":""},{"day":"18","month":"NOV","year":"2022","place_geo":"Clisson, Pays de la Loire, France","place_name":"Hellfest","ticket_link":"http://www.hellfest.fr","more_link":"http://www.hellfest.fr"},{"day":"19","month":"NOV","year":"2022","place_geo":"yjjyyj, jiriujb, iuiuh","place_name":"yyjyyj","ticket_link":"","more_link":""},{"day":"20","month":"NOV","year":"2022","place_geo":"Orléans, Centre Val de Loire, France","place_name":"Le dropkick Bar","ticket_link":"","more_link":""},{"day":"27","month":"NOV","year":"2022","place_geo":"Nantes, Pays de la Loire, France","place_name":"La scène Michelet","ticket_link":"","more_link":""},{"day":"29","month":"NOV","year":"2022","place_geo":"London, London, England","place_name":"Wembley Stadium","ticket_link":"http://www.hellfest.fr","more_link":"http://www.google.fr"},{"day":"30","month":"NOV","year":"2022","place_geo":"Nantes, Pays de la Loire, France","place_name":"Hellfest","ticket_link":"","more_link":""},{"day":"01","month":"DEC","year":"2022","place_geo":"Paris, Ile de France, France","place_name":"Bercy","ticket_link":"","more_link":""},{"day":"25","month":"DEC","year":"2022","place_geo":"New York, New York, United States","place_name":"Madison Square Garden","ticket_link":"http://www.hellfest.fr","more_link":""},{"day":"19","month":"JAN","year":"2023","place_geo":"Angers, Pays de la Loire, France","place_name":"T'es Rock coco","ticket_link":"","more_link":""}]